# From MPEC 2022-ED3
15P/Finlay,e,6.7955,13.7312,347.8714,3.509231,0.1499292,0.71683889,124.2161,10/20.0/2023,2000,g 12.0,4.0
# From MPEC 2022-X67
16P/Brooks,e,3.0109,138.8615,245.2971,3.660035,0.1407590,0.48633637,128.7166,10/20.0/2023,2000,g  7.5,10.0
# From MPEC 2023-J29
17P/Holmes,e,19.0217,326.6286,24.6001,3.639122,0.1419741,0.42719430,138.0198,10/20.0/2023,2000,g 10.0,6.0
# From  19, 80
18D/1896 X1/Perrine-Mrkos,e,17.656,158.473,238.215,3.88240,0.128841,0.5894884,319.518,10/20.0/2023,2000,g  9.0,4.0
# From MPEC 2023-KD6
19P/Borrelly,e,29.3116,74.2212,351.9598,3.607112,0.1438681,0.63788992,89.9234,10/20.0/2023,2000,g  4.5,10.0
# From MPEC 2021-F20
21P/Giacobini-Zinner,e,32.0575,195.3444,172.9080,3.494010,0.1509100,0.71123342,281.1471,10/20.0/2023,2000,g 11.4,4.0
# From MPEC 2023-SQ0
22P/Kopff,e,4.7459,120.6629,162.9544,3.435769,0.1547633,0.55012657,89.8696,10/20.0/2023,2000,g  3.0,10.4
# From MPC 14747
23P/Brorsen-Metcalf,e,19.3083,311.7532,129.4234,16.94110,0.0141349,0.97237439,0.0000,08/17.5160/1989,2000,g 10.0,6.0
# From MPC110085
24P/Schaumasse,e,11.5063,78.3934,58.3726,4.055698,0.1206718,0.70782659,262.0652,10/20.0/2023,2000,g  6.5,14.0
# From NK 378
25D/Neujmin 2,e,2.8012,280.3592,244.6144,3.218618,0.1706868,0.55250033,262.9132,10/20.0/2023,2000,g 12.5,6.0
# From MPEC 2023-RF3
26P/Grigg-Skjellerup,e,22.4330,211.5404,2.1483,3.015860,0.1881860,0.64060320,347.5149,10/20.0/2023,2000,g 12.0,16.0
# From MPC 78188
27P/Crommelin,e,29.4096,250.6927,195.8377,9.179788,0.0354369,0.91931546,158.3352,10/20.0/2023,2000,g 12.0,8.0
# From MPEC 2023-FK0
28P/Neujmin,e,14.3077,346.3576,347.4789,6.983042,0.0534118,0.77339458,50.8695,10/20.0/2023,2000,g  8.5,6.0
# From MPEC 2023-TM6
29P/Schwassmann-Wachmann,e,9.3609,312.4040,51.6896,6.051136,0.0662138,0.04440105,108.2061,10/20.0/2023,2000,g  4.0,4.0
# From MPEC 2023-TM6
30P/Reinmuth,e,8.0505,117.3011,9.4397,3.738142,0.1363705,0.51508141,318.8013,10/20.0/2023,2000,g  9.5,6.0
# From MPEC 2023-R20
31P/Schwassmann-Wachmann,e,4.5491,114.1085,17.8313,4.234141,0.1131244,0.19264092,177.5693,10/20.0/2023,2000,g  5.0,8.0
# From MPEC 2023-TM6
32P/ComasSola,e,9.9205,54.5285,54.6651,4.557976,0.1012852,0.55582569,341.4068,10/20.0/2023,2000,g  6.5,8.0
# From MPEC 2023-J29
33P/Daniel,e,22.2939,66.2908,20.4224,4.090360,0.1191411,0.45201702,313.7235,10/20.0/2023,2000,g 10.0,12.0
# From  9, 314
34D/Gale,e,10.5829,57.8697,218.0751,5.011742,0.0878458,0.75801240,268.5969,10/20.0/2023,2000,g  9.0,4.0
# From  15, 452
35P/Herschel-Rigollet,e,65.261,356.655,29.006,28.5421,0.006464,0.9744042,0.000,03/07.2733/2092,2000,g  9.0,4.0
# From MPEC 2023-R20
36P/Whipple,e,9.9520,181.8415,201.1146,4.138433,0.1170712,0.26894226,144.5505,10/20.0/2023,2000,g  8.5,6.0
# From MPEC 2021-F20
37P/Forbes,e,8.9486,314.5609,330.0820,3.462443,0.1529784,0.53288310,305.3428,10/20.0/2023,2000,g 13.8,4.0
# From MPEC 2018-S50
38P/Stephan-Oterma,e,18.3909,77.8917,359.5081,11.24420,0.0261403,0.85968337,47.1157,10/20.0/2023,2000,g  3.5,12.0
# From MPEC 2022-A21
39P/Oterma,e,1.5583,294.6511,105.1577,7.181266,0.0512156,0.20516514,4.6537,10/20.0/2023,2000,g  7.0,6.0
# From MPC100283
40P/Vaisala,e,11.4705,133.0222,48.0956,4.960664,0.0892061,0.63328058,292.7423,10/20.0/2023,2000,g  5.5,12.0
# From MPEC 2023-SQ0
41P/Tuttle-Giacobini-Kresak,e,9.2189,140.9846,62.2295,3.088473,0.1815885,0.65976972,72.8700,10/20.0/2023,2000,g 10.0,16.0
# From MPC 94283
42P/Neujmin,e,3.9900,150.1640,147.2137,4.875014,0.0915673,0.58427381,285.1057,10/20.0/2023,2000,g 13.0,6.0
# From MPEC 2023-RF3
43P/Wolf-Harrington,e,9.3472,244.0201,224.2222,4.329356,0.1094130,0.43452799,287.3997,10/20.0/2023,2000,g  8.0,6.0
# From MPEC 2023-T65
44P/Reinmuth,e,5.8970,286.4271,58.0252,3.687959,0.1391634,0.42722693,75.8567,10/20.0/2023,2000,g  8.3,6.0
# From MPEC 2022-O01
45P/Honda-Mrkos-Pajdusakova,e,4.3228,87.7005,327.9164,3.056179,0.1844743,0.81774246,99.7912,10/20.0/2023,2000,g 13.5,8.0
# From MPEC 2023-T65
46P/Wirtanen,e,11.7497,82.1644,356.3273,3.091239,0.1813449,0.65878420,321.5350,10/20.0/2023,2000,g 14.0,6.0
# From MPEC 2023-J29
47P/Ashbrook-Jackson,e,13.0386,356.9112,357.8165,4.120807,0.1178231,0.31865710,272.9738,10/20.0/2023,2000,g  1.0,11.2
# From MPEC 2023-FK0
48P/Johnson,e,12.2001,110.0755,216.7651,3.500884,0.1504657,0.42696489,284.8327,10/20.0/2023,2000,g 10.0,6.0
# From MPEC 2023-SQ0
49P/Arend-Rigaux,e,19.0567,118.7922,332.9274,3.569166,0.1461686,0.59879520,281.2599,10/20.0/2023,2000,g 11.3,4.4
# From MPEC 2023-T65
50P/Arend,e,19.1014,355.1724,49.3601,4.087889,0.1192492,0.52976497,335.4555,10/20.0/2023,2000,g  9.5,6.0
# From MPEC 2023-J29
51P/Harrington,e,5.4266,83.6612,269.2403,3.705779,0.1381608,0.54327826,53.0235,10/20.0/2023,2000,g 10.0,8.0
# From NK 3014
51P-A/Harrington,e,5.4269,269.2375,83.6454,3.707082,0.1380879,0.54346652,52.6395,10/20.0/2023,2000,g 10.0,8.0
# From MPEC 2023-J29
51P-D/Harrington,e,5.4271,83.6495,269.2585,3.706136,0.1381408,0.54340792,52.9574,10/20.0/2023,2000,g 16.0,8.0
# From MPEC 2023-J29
52P/Harrington-Abell,e,10.2315,336.8100,139.5544,3.863047,0.1298103,0.54051996,96.6671,10/20.0/2023,2000,g 13.5,6.0
# From MPEC 2023-TM6
53P/VanBiesbroeck,e,6.6063,148.8342,134.4609,5.434431,0.0777988,0.55000098,212.5755,10/20.0/2023,2000,g  7.7,4.8
# From MPC 89011
54P/de Vico-Swift-NEAT,e,6.0640,358.8532,1.8951,3.786878,0.1337464,0.42641063,317.2217,10/20.0/2023,2000,g  9.0,4.0
# From MPC 31070
55P/Tempel-Tuttle,e,62.5317,235.4182,172.4663,10.34964,0.0296017,0.90593717,278.0255,10/20.0/2023,2000,g  9.0,4.0
# From MPEC 2023-TM6
56P/Slaughter-Burnham,e,8.1576,345.9588,44.1019,5.064978,0.0864645,0.50866743,228.5336,10/20.0/2023,2000,g  8.5,6.0
# From MPEC 2023-HD1
57P/duToit-Neujmin-Delporte,e,2.8524,188.7754,115.1156,3.442862,0.1542853,0.50077153,113.0903,10/20.0/2023,2000,g 13.7,4.0
# From MPEC 2023-J29
58P/Jackson-Neujmin,e,13.1040,159.0684,200.5476,4.088930,0.1192037,0.66251708,147.8442,10/20.0/2023,2000,g 15.5,6.0
# From MPEC 2023-A50
59P/Kearns-Kwee,e,9.3475,312.7654,127.5565,4.481898,0.1038750,0.47657841,192.9356,10/20.0/2023,2000,g  7.0,6.0
# From MPEC 2021-F20
60P/Tsuchinshan,e,3.5813,267.4497,216.9513,3.526817,0.1488091,0.53361937,264.7851,10/20.0/2023,2000,g 11.5,6.0
# From MPEC 2023-J29
61P/Shajn-Schaldach,e,5.9995,162.9610,221.6475,3.688714,0.1391207,0.42364310,50.2595,10/20.0/2023,2000,g  6.0,10.0
# From MPEC 2023-TM6
62P/Tsuchinshan,e,4.7381,68.6697,47.2942,3.369487,0.1593523,0.62458648,349.4654,10/20.0/2023,2000,g  8.0,10.0
# From MPC 84320
63P/Wild,e,19.6854,357.9282,168.9290,5.623984,0.0738989,0.65024889,286.7399,10/20.0/2023,2000,g 10.5,6.0
# From MPEC 2023-A50
64P/Swift-Gehrels,e,8.9499,299.8568,97.2272,4.452319,0.1049119,0.68878060,189.7472,10/20.0/2023,2000,g  9.5,12.0
# From MPEC 2023-T65
65P/Gunn,e,9.1759,61.9761,213.8146,3.890213,0.1284529,0.24820467,282.1567,10/20.0/2023,2000,g  5.0,6.0
# From MPEC 2021-F20
66P/duToit,e,18.6391,21.7809,257.4855,6.070903,0.0658907,0.78543178,130.6121,10/20.0/2023,2000,g 15.0,4.0
# From MPEC 2023-J29
67P/Churyumov-Gerasimenko,e,3.8717,36.3291,22.1603,3.457770,0.1532886,0.64999527,109.8639,10/20.0/2023,2000,g 11.0,4.0
# From MPEC 2023-HD1
68P/Klemola,e,11.1096,175.0558,153.2659,4.960852,0.0892010,0.63675895,128.5776,10/20.0/2023,2000,g 12.6,4.0
# From MPEC 2023-A50
69P/Taylor,e,22.0539,104.8038,343.4080,3.883251,0.1287985,0.41426235,215.8222,10/20.0/2023,2000,g  9.5,12.0
# From MPEC 2023-G31
70P/Kojima,e,6.5992,119.2456,1.7776,3.676716,0.1398022,0.45416271,100.0741,10/20.0/2023,2000,g 11.0,6.0
# From MPEC 2023-TM6
71P/Clark,e,9.4386,59.3871,209.1173,3.139917,0.1771441,0.49384084,47.8531,10/20.0/2023,2000,g  9.8,6.0
# From MPEC 2023-N01
72P/Denning-Fujikawa,e,10.9490,26.6959,346.7351,4.307139,0.1102607,0.81866035,13.9180,10/20.0/2023,2000,g 17.5,10.0
# From MPEC 2023-RF3
73P/Schwassmann-Wachmann,e,11.2561,69.5393,199.4808,3.092642,0.1812214,0.68651455,76.0839,10/20.0/2023,2000,g 11.5,6.0
# From NK 1613
73P-B/Schwassmann-Wachmann B,e,11.2301,199.4316,69.5575,3.093819,0.1811180,0.68679980,75.3092,10/20.0/2023,2000,g  9.0,4.0
# From NK 2710
73P-C/Schwassmann-Wachmann,e,11.2242,199.4660,69.5491,3.092507,0.1812333,0.68656659,76.0925,10/20.0/2023,2000,g  9.0,4.0
# From NK 934
73P-E/Schwassmann-Wachmann,e,11.2381,199.4077,69.5680,3.097525,0.1807931,0.68725104,73.5878,10/20.0/2023,2000,g  9.0,4.0
# From MPC 56796
73P-G/Schwassmann-Wachmann,e,11.388,69.909,198.772,3.06230,0.183922,0.6933024,359.982,06/08.0/2006,2000,g  9.0,4.0
# From MPC 56796
73P-H/Schwassmann-Wachmann,e,11.389,69.903,198.778,3.06223,0.183927,0.6933024,359.948,06/08.0/2006,2000,g  9.0,4.0
# From MPC 56796
73P-J/Schwassmann-Wachmann,e,11.386,69.983,198.673,3.06380,0.183786,0.6933024,359.974,06/08.0/2006,2000,g  9.0,4.0
# From MPC 56797
73P-K/Schwassmann-Wachmann,e,11.390,69.881,198.809,3.06176,0.183970,0.6933024,359.959,06/08.0/2006,2000,g  9.0,4.0
# From MPC 56797
73P-L/Schwassmann-Wachmann,e,11.388,69.911,198.772,3.06211,0.183938,0.6933024,359.937,06/08.0/2006,2000,g  9.0,4.0
# From MPC 56797
73P-M/Schwassmann-Wachmann,e,11.389,69.895,198.787,3.06205,0.183944,0.6933024,359.952,06/08.0/2006,2000,g  9.0,4.0
# From MPC 56797
73P-N/Schwassmann-Wachmann,e,11.389,69.909,198.754,3.06231,0.183921,0.6933024,359.952,06/08.0/2006,2000,g  9.0,4.0
# From MPC 56797
73P-P/Schwassmann-Wachmann,e,11.390,69.900,198.783,3.06222,0.183929,0.6933024,359.839,06/07.0/2006,2000,g  9.0,4.0
# From MPC 56797
73P-Q/Schwassmann-Wachmann,e,11.387,69.944,198.717,3.06298,0.183860,0.6933024,359.867,06/07.0/2006,2000,g  9.0,4.0
# From MPC 56797
73P-R/Schwassmann-Wachmann,e,11.388,69.904,198.776,3.06224,0.183927,0.6933024,359.966,06/08.0/2006,2000,g  9.0,4.0
# From MPC 56797
73P-S/Schwassmann-Wachmann,e,11.127,77.364,188.229,3.22719,0.170007,0.6933024,359.883,06/08.0/2006,2000,g  9.0,4.0
# From MPEC 2023-J29
73P-T/Schwassmann-Wachmann,e,11.2600,69.5447,199.4601,3.091351,0.1813349,0.68642788,76.3487,10/20.0/2023,2000,g  9.0,4.0
# From MPC 56797
73P-U/Schwassmann-Wachmann,e,11.384,69.994,198.659,3.06366,0.183799,0.6933024,359.997,06/09.0/2006,2000,g  9.0,4.0
